[{"OBJECT_NAME":"STARLINK-36409","OBJECT_ID":"2026-005C","EPOCH":"2026-03-09T11:38:31.155648","MEAN_MOTION":15.27606185,"ECCENTRICITY":0.00018205,"INCLINATION":42.9972,"RA_OF_ASC_NODE":239.2756,"ARG_OF_PERICENTER":274.16,"MEAN_ANOMALY":85.9044,"EPHEMERIS_TYPE":0,"CLASSIFICATION_TYPE":"U","NORAD_CAT_ID":67406,"ELEMENT_SET_NO":999,"REV_AT_EPOCH":866,"BSTAR":0.0015357532,"MEAN_MOTION_DOT":0.00042276,"MEAN_MOTION_DDOT":0},{"OBJECT_NAME":"CXBN","OBJECT_ID":"2012-048E","EPOCH":"2026-03-09T15:19:34.514688","MEAN_MOTION":15.19824857,"ECCENTRICITY":0.0107387,"INCLINATION":64.6612,"RA_OF_ASC_NODE":146.5396,"ARG_OF_PERICENTER":203.7806,"MEAN_ANOMALY":155.8339,"EPHEMERIS_TYPE":0,"CLASSIFICATION_TYPE":"U","NORAD_CAT_ID":38762,"ELEMENT_SET_NO":999,"REV_AT_EPOCH":10314,"BSTAR":0.00060054,"MEAN_MOTION_DOT":0.00014901,"MEAN_MOTION_DDOT":0}]
